[{"OBJECT_NAME":"DIRECTV 11","OBJECT_ID":"2008-013A","EPOCH":"2026-03-14T13:10:22.831104","MEAN_MOTION":1.00271458,"ECCENTRICITY":2.369e-5,"INCLINATION":0.0199,"RA_OF_ASC_NODE":342.0881,"ARG_OF_PERICENTER":63.2381,"MEAN_ANOMALY":225.2332,"EPHEMERIS_TYPE":0,"CLASSIFICATION_TYPE":"U","NORAD_CAT_ID":32729,"ELEMENT_SET_NO":999,"REV_AT_EPOCH":4464,"BSTAR":0,"MEAN_MOTION_DOT":-1.26e-6,"MEAN_MOTION_DDOT":0},{"OBJECT_NAME":"GALAXY 18 (G-18)","OBJECT_ID":"2008-024A","EPOCH":"2026-03-14T13:03:30.989088","MEAN_MOTION":1.00272934,"ECCENTRICITY":0.00030497,"INCLINATION":0.0182,"RA_OF_ASC_NODE":110.0791,"ARG_OF_PERICENTER":257.0806,"MEAN_ANOMALY":237.8713,"EPHEMERIS_TYPE":0,"CLASSIFICATION_TYPE":"U","NORAD_CAT_ID":32951,"ELEMENT_SET_NO":999,"REV_AT_EPOCH":4490,"BSTAR":0,"MEAN_MOTION_DOT":2.4e-7,"MEAN_MOTION_DDOT":0},{"OBJECT_NAME":"INTELSAT 25 (IS-25)","OBJECT_ID":"2008-034A","EPOCH":"2026-03-14T11:46:23.386080","MEAN_MOTION":1.00270447,"ECCENTRICITY":0.00032535,"INCLINATION":2.4617,"RA_OF_ASC_NODE":81.4806,"ARG_OF_PERICENTER":251.0577,"MEAN_ANOMALY":344.6559,"EPHEMERIS_TYPE":0,"CLASSIFICATION_TYPE":"U","NORAD_CAT_ID":33153,"ELEMENT_SET_NO":999,"REV_AT_EPOCH":6474,"BSTAR":0,"MEAN_MOTION_DOT":-2.24e-6,"MEAN_MOTION_DDOT":0},{"OBJECT_NAME":"GALAXY 19 (G-19)","OBJECT_ID":"2008-045A","EPOCH":"2026-03-14T13:11:00.270816","MEAN_MOTION":1.00271685,"ECCENTRICITY":0.00027855,"INCLINATION":0.036,"RA_OF_ASC_NODE":253.7314,"ARG_OF_PERICENTER":112.3208,"MEAN_ANOMALY":266.8499,"EPHEMERIS_TYPE":0,"CLASSIFICATION_TYPE":"U","NORAD_CAT_ID":33376,"ELEMENT_SET_NO":999,"REV_AT_EPOCH":6395,"BSTAR":0,"MEAN_MOTION_DOT":-1.4e-6,"MEAN_MOTION_DDOT":0},{"OBJECT_NAME":"FM-5","OBJECT_ID":"2009-034A","EPOCH":"2026-03-13T13:16:25.957344","MEAN_MOTION":1.00271903,"ECCENTRICITY":3.665e-5,"INCLINATION":0.0363,"RA_OF_ASC_NODE":265.984,"ARG_OF_PERICENTER":290.5354,"MEAN_ANOMALY":87.6024,"EPHEMERIS_TYPE":0,"CLASSIFICATION_TYPE":"U","NORAD_CAT_ID":35493,"ELEMENT_SET_NO":999,"REV_AT_EPOCH":4568,"BSTAR":0,"MEAN_MOTION_DOT":-2.0e-6,"MEAN_MOTION_DDOT":0},{"OBJECT_NAME":"INTELSAT 14 (IS-14)","OBJECT_ID":"2009-064A","EPOCH":"2026-03-14T10:00:22.826304","MEAN_MOTION":1.0027216,"ECCENTRICITY":0.00023494,"INCLINATION":0.0186,"RA_OF_ASC_NODE":97.1632,"ARG_OF_PERICENTER":258.0454,"MEAN_ANOMALY":281.9142,"EPHEMERIS_TYPE":0,"CLASSIFICATION_TYPE":"U","NORAD_CAT_ID":36097,"ELEMENT_SET_NO":999,"REV_AT_EPOCH":5965,"BSTAR":0,"MEAN_MOTION_DOT":-2.74e-6,"MEAN_MOTION_DDOT":0},{"OBJECT_NAME":"INTELSAT 15 (IS-15)","OBJECT_ID":"2009-067A","EPOCH":"2026-03-14T14:02:55.293216","MEAN_MOTION":1.00271782,"ECCENTRICITY":0.00022439,"INCLINATION":0.0122,"RA_OF_ASC_NODE":111.0586,"ARG_OF_PERICENTER":244.756,"MEAN_ANOMALY":112.2607,"EPHEMERIS_TYPE":0,"CLASSIFICATION_TYPE":"U","NORAD_CAT_ID":36106,"ELEMENT_SET_NO":999,"REV_AT_EPOCH":4028,"BSTAR":0,"MEAN_MOTION_DOT":-1.86e-6,"MEAN_MOTION_DDOT":0},{"OBJECT_NAME":"DIRECTV 12","OBJECT_ID":"2009-075A","EPOCH":"2026-03-14T09:02:38.491296","MEAN_MOTION":1.00271383,"ECCENTRICITY":4.999e-5,"INCLINATION":0.0343,"RA_OF_ASC_NODE":6.3915,"ARG_OF_PERICENTER":43.7856,"MEAN_ANOMALY":154.7534,"EPHEMERIS_TYPE":0,"CLASSIFICATION_TYPE":"U","NORAD_CAT_ID":36131,"ELEMENT_SET_NO":999,"REV_AT_EPOCH":4560,"BSTAR":0,"MEAN_MOTION_DOT":-1.04e-6,"MEAN_MOTION_DDOT":0},{"OBJECT_NAME":"INTELSAT 16 (IS-16)","OBJECT_ID":"2010-006A","EPOCH":"2026-03-14T13:16:52.209120","MEAN_MOTION":1.00271681,"ECCENTRICITY":0.00019853,"INCLINATION":0.0221,"RA_OF_ASC_NODE":89.4851,"ARG_OF_PERICENTER":279.6754,"MEAN_ANOMALY":286.0185,"EPHEMERIS_TYPE":0,"CLASSIFICATION_TYPE":"U","NORAD_CAT_ID":36397,"ELEMENT_SET_NO":999,"REV_AT_EPOCH":5870,"BSTAR":0,"MEAN_MOTION_DOT":-2.45e-6,"MEAN_MOTION_DDOT":0},{"OBJECT_NAME":"XM-5","OBJECT_ID":"2010-053A","EPOCH":"2026-03-13T15:37:48.824256","MEAN_MOTION":1.00272215,"ECCENTRICITY":0.00037026,"INCLINATION":0.0672,"RA_OF_ASC_NODE":272.3776,"ARG_OF_PERICENTER":254.1479,"MEAN_ANOMALY":123.9981,"EPHEMERIS_TYPE":0,"CLASSIFICATION_TYPE":"U","NORAD_CAT_ID":37185,"ELEMENT_SET_NO":999,"REV_AT_EPOCH":5652,"BSTAR":0,"MEAN_MOTION_DOT":-2.3e-7,"MEAN_MOTION_DDOT":0},{"OBJECT_NAME":"INTELSAT 17 (IS-17)","OBJECT_ID":"2010-065B","EPOCH":"2026-03-14T13:57:25.819776","MEAN_MOTION":1.00271862,"ECCENTRICITY":0.00025391,"INCLINATION":0.0142,"RA_OF_ASC_NODE":175.6598,"ARG_OF_PERICENTER":194.145,"MEAN_ANOMALY":77.7307,"EPHEMERIS_TYPE":0,"CLASSIFICATION_TYPE":"U","NORAD_CAT_ID":37238,"ELEMENT_SET_NO":999,"REV_AT_EPOCH":5229,"BSTAR":0,"MEAN_MOTION_DOT":-2.0e-8,"MEAN_MOTION_DDOT":0},{"OBJECT_NAME":"INTELSAT 28 (IS-28)","OBJECT_ID":"2011-016A","EPOCH":"2026-03-14T10:04:14.955456","MEAN_MOTION":1.0027201,"ECCENTRICITY":0.00046056,"INCLINATION":1.5596,"RA_OF_ASC_NODE":83.8361,"ARG_OF_PERICENTER":273.2966,"MEAN_ANOMALY":294.2661,"EPHEMERIS_TYPE":0,"CLASSIFICATION_TYPE":"U","NORAD_CAT_ID":37392,"ELEMENT_SET_NO":999,"REV_AT_EPOCH":5233,"BSTAR":0,"MEAN_MOTION_DOT":-2.25e-6,"MEAN_MOTION_DDOT":0},{"OBJECT_NAME":"INTELSAT 18 (IS-18)","OBJECT_ID":"2011-056A","EPOCH":"2026-03-14T12:47:17.543616","MEAN_MOTION":1.00273869,"ECCENTRICITY":0.00016376,"INCLINATION":0.0366,"RA_OF_ASC_NODE":261.6625,"ARG_OF_PERICENTER":108.7553,"MEAN_ANOMALY":173.5373,"EPHEMERIS_TYPE":0,"CLASSIFICATION_TYPE":"U","NORAD_CAT_ID":37834,"ELEMENT_SET_NO":999,"REV_AT_EPOCH":5286,"BSTAR":0,"MEAN_MOTION_DOT":5.2e-7,"MEAN_MOTION_DDOT":0},{"OBJECT_NAME":"INTELSAT 22 (IS-22)","OBJECT_ID":"2012-011A","EPOCH":"2026-03-14T14:53:58.015968","MEAN_MOTION":1.00270729,"ECCENTRICITY":0.00017444,"INCLINATION":0.0233,"RA_OF_ASC_NODE":113.5038,"ARG_OF_PERICENTER":237.8107,"MEAN_ANOMALY":116.4905,"EPHEMERIS_TYPE":0,"CLASSIFICATION_TYPE":"U","NORAD_CAT_ID":38098,"ELEMENT_SET_NO":999,"REV_AT_EPOCH":624,"BSTAR":0,"MEAN_MOTION_DOT":-5.9e-7,"MEAN_MOTION_DDOT":0},{"OBJECT_NAME":"INTELSAT 19 (IS-19)","OBJECT_ID":"2012-030A","EPOCH":"2026-03-14T15:13:38.741088","MEAN_MOTION":1.00271738,"ECCENTRICITY":0.000293,"INCLINATION":0.0191,"RA_OF_ASC_NODE":141.5566,"ARG_OF_PERICENTER":218.1737,"MEAN_ANOMALY":206.9262,"EPHEMERIS_TYPE":0,"CLASSIFICATION_TYPE":"U","NORAD_CAT_ID":38356,"ELEMENT_SET_NO":999,"REV_AT_EPOCH":4950,"BSTAR":0,"MEAN_MOTION_DOT":-5.7e-7,"MEAN_MOTION_DDOT":0},{"OBJECT_NAME":"INTELSAT 20 (IS-20)","OBJECT_ID":"2012-043A","EPOCH":"2026-03-14T13:58:10.747776","MEAN_MOTION":1.00270811,"ECCENTRICITY":0.00025528,"INCLINATION":0.0197,"RA_OF_ASC_NODE":141.5105,"ARG_OF_PERICENTER":28.2735,"MEAN_ANOMALY":280.4276,"EPHEMERIS_TYPE":0,"CLASSIFICATION_TYPE":"U","NORAD_CAT_ID":38740,"ELEMENT_SET_NO":999,"REV_AT_EPOCH":4979,"BSTAR":0,"MEAN_MOTION_DOT":-2.5e-7,"MEAN_MOTION_DDOT":0},{"OBJECT_NAME":"INTELSAT 21 (IS-21)","OBJECT_ID":"2012-045A","EPOCH":"2026-03-14T13:22:06.706848","MEAN_MOTION":1.00269182,"ECCENTRICITY":0.00019149,"INCLINATION":0.0268,"RA_OF_ASC_NODE":152.3281,"ARG_OF_PERICENTER":219.8385,"MEAN_ANOMALY":302.5487,"EPHEMERIS_TYPE":0,"CLASSIFICATION_TYPE":"U","NORAD_CAT_ID":38749,"ELEMENT_SET_NO":999,"REV_AT_EPOCH":4957,"BSTAR":0,"MEAN_MOTION_DOT":0,"MEAN_MOTION_DDOT":0}]
