DIRECTV 11              
1 32729U 08013A   26073.54887536 -.00000126  00000+0  00000+0 0  9997
2 32729   0.0199 342.0881 0000236  63.2381 225.2332  1.00271458 44649
GALAXY 18 (G-18)        
1 32951U 08024A   26073.54410867  .00000024  00000+0  00000+0 0  9991
2 32951   0.0182 110.0791 0003049 257.0806 237.8713  1.00272934 44902
INTELSAT 25 (IS-25)     
1 33153U 08034A   26073.49054845 -.00000224  00000+0  00000+0 0  9994
2 33153   2.4617  81.4806 0003253 251.0577 344.6559  1.00270447 64746
GALAXY 19 (G-19)        
1 33376U 08045A   26073.54930869 -.00000140  00000+0  00000+0 0  9995
2 33376   0.0360 253.7314 0002785 112.3208 266.8499  1.00271685 63954
FM-5                    
1 35493U 09034A   26072.55307821 -.00000200  00000+0  00000+0 0  9999
2 35493   0.0363 265.9840 0000366 290.5354  87.6024  1.00271903 45688
INTELSAT 14 (IS-14)     
1 36097U 09064A   26073.41693086 -.00000274  00000+0  00000+0 0  9991
2 36097   0.0186  97.1632 0002349 258.0454 281.9142  1.00272160 59657
INTELSAT 15 (IS-15)     
1 36106U 09067A   26073.58536219 -.00000186  00000+0  00000+0 0  9999
2 36106   0.0122 111.0586 0002243 244.7560 112.2607  1.00271782 40285
DIRECTV 12              
1 36131U 09075A   26073.37683439 -.00000104  00000+0  00000+0 0  9990
2 36131   0.0343   6.3915 0000499  43.7856 154.7534  1.00271383 45604
INTELSAT 16 (IS-16)     
1 36397U 10006A   26073.55338205 -.00000245  00000+0  00000+0 0  9994
2 36397   0.0221  89.4851 0001985 279.6754 286.0185  1.00271681 58709
XM-5                    
1 37185U 10053A   26072.65125954 -.00000023  00000+0  00000+0 0  9991
2 37185   0.0672 272.3776 0003702 254.1479 123.9981  1.00272215 56520
INTELSAT 17 (IS-17)     
1 37238U 10065B   26073.58154884 -.00000002  00000+0  00000+0 0  9997
2 37238   0.0142 175.6598 0002539 194.1450  77.7307  1.00271862 52292
INTELSAT 28 (IS-28)     
1 37392U 11016A   26073.41961754 -.00000225  00000+0  00000+0 0  9996
2 37392   1.5596  83.8361 0004605 273.2966 294.2661  1.00272010 52337
INTELSAT 18 (IS-18)     
1 37834U 11056A   26073.53284194  .00000052  00000+0  00000+0 0  9997
2 37834   0.0366 261.6625 0001637 108.7553 173.5373  1.00273869 52862
INTELSAT 22 (IS-22)     
1 38098U 12011A   26073.62081037 -.00000059  00000+0  00000+0 0  9991
2 38098   0.0233 113.5038 0001744 237.8107 116.4905  1.00270729  6249
INTELSAT 19 (IS-19)     
1 38356U 12030A   26073.63447617 -.00000057  00000+0  00000+0 0  9998
2 38356   0.0191 141.5566 0002930 218.1737 206.9262  1.00271738 49503
INTELSAT 20 (IS-20)     
1 38740U 12043A   26073.58206884 -.00000025  00000+0  00000+0 0  9997
2 38740   0.0197 141.5105 0002552  28.2735 280.4276  1.00270811 49797
INTELSAT 21 (IS-21)     
1 38749U 12045A   26073.55702207  .00000000  00000+0  00000+0 0  9997
2 38749   0.0268 152.3281 0001914 219.8385 302.5487  1.00269182 49575
